GLOBALSTAR M024         
1 25883U 99043A   25164.08188437 -.00000067  00000+0 -82419-4 0  9990
2 25883  52.0050  29.8850 0002158  85.6803  85.0734 11.10168910114403
GLOBALSTAR M027         
1 25884U 99043B   25164.51346960 -.00000092  00000+0 -10781-2 0  9995
2 25884  52.0201 106.7881 0021832 346.2873  13.7325 11.04372101140836
GLOBALSTAR M054         
1 25885U 99043C   25164.44844635  .00000138  00000+0  53394-2 0  9996
2 25885  52.0124 234.8647 0006192 169.6357 280.0985 11.39223562118627
GLOBALSTAR M053         
1 25886U 99043D   25164.81982847 -.00000080  00000+0 -32618-3 0  9991
2 25886  51.9944 180.8801 0002821  74.7844  95.7359 11.27665770119209
GLOBALSTAR M058         
1 25907U 99049A   25164.53925627 -.00000093  00000+0 -11420-3 0  9995
2 25907  51.9924 118.9146 0001871 269.9063  90.1557 11.93200354152314
GLOBALSTAR M050         
1 25908U 99049B   25164.34805451 -.00000159  00000+0 -79660-3 0  9990
2 25908  51.9968 127.3879 0009426  22.9150 144.0203 12.07455181147720
GLOBALSTAR M033         
1 25909U 99049C   25164.82794240 -.00000055  00000+0  35167-3 0  9995
2 25909  51.9932 358.1352 0012799 255.2800 104.6629 12.20293010168051
GLOBALSTAR M055         
1 25910U 99049D   25164.59837801 -.00000071  00000+0  20172-3 0  9990
2 25910  52.0040   9.7043 0007712 120.2004 239.9612 12.29428646167841
